[{"OBJECT_NAME":"ONEWEB-0161","OBJECT_ID":"2021-025M","EPOCH":"2026-03-26T10:33:42.085152","MEAN_MOTION":13.13472604,"ECCENTRICITY":0.0001757,"INCLINATION":87.9016,"RA_OF_ASC_NODE":336.6909,"ARG_OF_PERICENTER":73.5775,"MEAN_ANOMALY":286.5547,"EPHEMERIS_TYPE":0,"CLASSIFICATION_TYPE":"U","NORAD_CAT_ID":48053,"ELEMENT_SET_NO":999,"REV_AT_EPOCH":24264,"BSTAR":0.00057847,"MEAN_MOTION_DOT":2.24e-6,"MEAN_MOTION_DDOT":0},{"OBJECT_NAME":"ONEWEB-0158","OBJECT_ID":"2021-025N","EPOCH":"2026-03-26T09:35:11.158080","MEAN_MOTION":13.13471823,"ECCENTRICITY":0.0001819,"INCLINATION":87.9024,"RA_OF_ASC_NODE":336.6911,"ARG_OF_PERICENTER":89.3324,"MEAN_ANOMALY":270.8014,"EPHEMERIS_TYPE":0,"CLASSIFICATION_TYPE":"U","NORAD_CAT_ID":48054,"ELEMENT_SET_NO":999,"REV_AT_EPOCH":24276,"BSTAR":-7.5891e-5,"MEAN_MOTION_DOT":-1.5e-7,"MEAN_MOTION_DDOT":0},{"OBJECT_NAME":"ONEWEB-0157","OBJECT_ID":"2021-025P","EPOCH":"2026-03-26T10:11:45.420000","MEAN_MOTION":13.13471848,"ECCENTRICITY":0.0001937,"INCLINATION":87.9019,"RA_OF_ASC_NODE":336.6905,"ARG_OF_PERICENTER":68.5793,"MEAN_ANOMALY":291.5543,"EPHEMERIS_TYPE":0,"CLASSIFICATION_TYPE":"U","NORAD_CAT_ID":48055,"ELEMENT_SET_NO":999,"REV_AT_EPOCH":24270,"BSTAR":-0.00037304,"MEAN_MOTION_DOT":-1.23e-6,"MEAN_MOTION_DDOT":0},{"OBJECT_NAME":"ONEWEB-0162","OBJECT_ID":"2021-025Q","EPOCH":"2026-03-26T09:37:26.541696","MEAN_MOTION":13.13469234,"ECCENTRICITY":0.0001591,"INCLINATION":87.9021,"RA_OF_ASC_NODE":336.6996,"ARG_OF_PERICENTER":76.1976,"MEAN_ANOMALY":283.933,"EPHEMERIS_TYPE":0,"CLASSIFICATION_TYPE":"U","NORAD_CAT_ID":48056,"ELEMENT_SET_NO":999,"REV_AT_EPOCH":24267,"BSTAR":-0.00013936,"MEAN_MOTION_DOT":-3.8e-7,"MEAN_MOTION_DDOT":0},{"OBJECT_NAME":"ONEWEB-0155","OBJECT_ID":"2021-025R","EPOCH":"2026-03-26T09:47:23.022240","MEAN_MOTION":13.13471089,"ECCENTRICITY":0.0001894,"INCLINATION":87.9017,"RA_OF_ASC_NODE":336.696,"ARG_OF_PERICENTER":77.0818,"MEAN_ANOMALY":283.0522,"EPHEMERIS_TYPE":0,"CLASSIFICATION_TYPE":"U","NORAD_CAT_ID":48057,"ELEMENT_SET_NO":999,"REV_AT_EPOCH":24281,"BSTAR":-0.00073648,"MEAN_MOTION_DOT":-2.56e-6,"MEAN_MOTION_DDOT":0},{"OBJECT_NAME":"ONEWEB-0149","OBJECT_ID":"2021-025S","EPOCH":"2026-03-26T10:19:03.912960","MEAN_MOTION":13.1347229,"ECCENTRICITY":0.0001559,"INCLINATION":87.9024,"RA_OF_ASC_NODE":336.6897,"ARG_OF_PERICENTER":76.8523,"MEAN_ANOMALY":283.278,"EPHEMERIS_TYPE":0,"CLASSIFICATION_TYPE":"U","NORAD_CAT_ID":48058,"ELEMENT_SET_NO":999,"REV_AT_EPOCH":24262,"BSTAR":-0.00021268,"MEAN_MOTION_DOT":-6.5e-7,"MEAN_MOTION_DDOT":0},{"OBJECT_NAME":"ONEWEB-0148","OBJECT_ID":"2021-025T","EPOCH":"2026-03-26T09:25:26.230080","MEAN_MOTION":13.13468554,"ECCENTRICITY":0.0001357,"INCLINATION":87.9017,"RA_OF_ASC_NODE":336.7106,"ARG_OF_PERICENTER":61.6367,"MEAN_ANOMALY":298.4899,"EPHEMERIS_TYPE":0,"CLASSIFICATION_TYPE":"U","NORAD_CAT_ID":48059,"ELEMENT_SET_NO":999,"REV_AT_EPOCH":24274,"BSTAR":0.00036754,"MEAN_MOTION_DOT":1.47e-6,"MEAN_MOTION_DDOT":0},{"OBJECT_NAME":"ONEWEB-0160","OBJECT_ID":"2021-025U","EPOCH":"2026-03-26T09:49:48.614016","MEAN_MOTION":13.13468717,"ECCENTRICITY":0.0001747,"INCLINATION":87.9011,"RA_OF_ASC_NODE":336.7037,"ARG_OF_PERICENTER":105.0919,"MEAN_ANOMALY":255.0403,"EPHEMERIS_TYPE":0,"CLASSIFICATION_TYPE":"U","NORAD_CAT_ID":48060,"ELEMENT_SET_NO":999,"REV_AT_EPOCH":24269,"BSTAR":-0.0006839,"MEAN_MOTION_DOT":-2.37e-6,"MEAN_MOTION_DDOT":0},{"OBJECT_NAME":"ONEWEB-0163","OBJECT_ID":"2021-025V","EPOCH":"2026-03-26T09:27:52.528608","MEAN_MOTION":13.13471538,"ECCENTRICITY":0.0001867,"INCLINATION":87.9016,"RA_OF_ASC_NODE":336.6992,"ARG_OF_PERICENTER":70.8074,"MEAN_ANOMALY":289.3257,"EPHEMERIS_TYPE":0,"CLASSIFICATION_TYPE":"U","NORAD_CAT_ID":48061,"ELEMENT_SET_NO":999,"REV_AT_EPOCH":24281,"BSTAR":0.00034271,"MEAN_MOTION_DOT":1.38e-6,"MEAN_MOTION_DDOT":0},{"OBJECT_NAME":"ONEWEB-0159","OBJECT_ID":"2021-025W","EPOCH":"2026-03-26T09:15:41.907744","MEAN_MOTION":13.1347132,"ECCENTRICITY":0.0001723,"INCLINATION":87.9024,"RA_OF_ASC_NODE":336.6887,"ARG_OF_PERICENTER":71.5277,"MEAN_ANOMALY":288.6039,"EPHEMERIS_TYPE":0,"CLASSIFICATION_TYPE":"U","NORAD_CAT_ID":48062,"ELEMENT_SET_NO":999,"REV_AT_EPOCH":24273,"BSTAR":0.00087285,"MEAN_MOTION_DOT":3.32e-6,"MEAN_MOTION_DDOT":0},{"OBJECT_NAME":"ONEWEB-0164","OBJECT_ID":"2021-025X","EPOCH":"2026-03-26T10:38:34.218240","MEAN_MOTION":13.13472389,"ECCENTRICITY":0.0001747,"INCLINATION":87.9024,"RA_OF_ASC_NODE":336.6838,"ARG_OF_PERICENTER":82.76,"MEAN_ANOMALY":277.3728,"EPHEMERIS_TYPE":0,"CLASSIFICATION_TYPE":"U","NORAD_CAT_ID":48063,"ELEMENT_SET_NO":999,"REV_AT_EPOCH":24272,"BSTAR":0.00071197,"MEAN_MOTION_DOT":2.73e-6,"MEAN_MOTION_DDOT":0},{"OBJECT_NAME":"ONEWEB-0167","OBJECT_ID":"2021-025Y","EPOCH":"2026-03-26T09:29:06.163872","MEAN_MOTION":13.13472083,"ECCENTRICITY":0.0002407,"INCLINATION":87.9013,"RA_OF_ASC_NODE":336.7109,"ARG_OF_PERICENTER":76.6985,"MEAN_ANOMALY":283.4412,"EPHEMERIS_TYPE":0,"CLASSIFICATION_TYPE":"U","NORAD_CAT_ID":48064,"ELEMENT_SET_NO":999,"REV_AT_EPOCH":24270,"BSTAR":0.00014918,"MEAN_MOTION_DOT":6.7e-7,"MEAN_MOTION_DDOT":0},{"OBJECT_NAME":"ONEWEB-0166","OBJECT_ID":"2021-025Z","EPOCH":"2026-03-26T10:01:59.874240","MEAN_MOTION":13.13469812,"ECCENTRICITY":0.0001625,"INCLINATION":87.9026,"RA_OF_ASC_NODE":336.6703,"ARG_OF_PERICENTER":74.4342,"MEAN_ANOMALY":285.6966,"EPHEMERIS_TYPE":0,"CLASSIFICATION_TYPE":"U","NORAD_CAT_ID":48065,"ELEMENT_SET_NO":999,"REV_AT_EPOCH":24278,"BSTAR":-0.001351,"MEAN_MOTION_DOT":-4.81e-6,"MEAN_MOTION_DDOT":0},{"OBJECT_NAME":"ONEWEB-0151","OBJECT_ID":"2021-025AA","EPOCH":"2026-03-26T10:04:27.074784","MEAN_MOTION":13.1347185,"ECCENTRICITY":0.0001883,"INCLINATION":87.9017,"RA_OF_ASC_NODE":336.6946,"ARG_OF_PERICENTER":80.6706,"MEAN_ANOMALY":279.4636,"EPHEMERIS_TYPE":0,"CLASSIFICATION_TYPE":"U","NORAD_CAT_ID":48066,"ELEMENT_SET_NO":999,"REV_AT_EPOCH":24272,"BSTAR":-0.00059177,"MEAN_MOTION_DOT":-2.03e-6,"MEAN_MOTION_DDOT":0},{"OBJECT_NAME":"ONEWEB-0170","OBJECT_ID":"2021-025AB","EPOCH":"2026-03-26T10:16:37.496064","MEAN_MOTION":13.13472421,"ECCENTRICITY":0.0002011,"INCLINATION":87.9015,"RA_OF_ASC_NODE":336.6947,"ARG_OF_PERICENTER":91.6359,"MEAN_ANOMALY":268.5,"EPHEMERIS_TYPE":0,"CLASSIFICATION_TYPE":"U","NORAD_CAT_ID":48067,"ELEMENT_SET_NO":999,"REV_AT_EPOCH":24268,"BSTAR":-0.00012096,"MEAN_MOTION_DOT":-3.1e-7,"MEAN_MOTION_DDOT":0},{"OBJECT_NAME":"ONEWEB-0168","OBJECT_ID":"2021-025AC","EPOCH":"2026-03-26T09:54:41.102208","MEAN_MOTION":13.13469094,"ECCENTRICITY":0.0001813,"INCLINATION":87.9022,"RA_OF_ASC_NODE":336.6903,"ARG_OF_PERICENTER":73.7278,"MEAN_ANOMALY":286.4051,"EPHEMERIS_TYPE":0,"CLASSIFICATION_TYPE":"U","NORAD_CAT_ID":48068,"ELEMENT_SET_NO":999,"REV_AT_EPOCH":24269,"BSTAR":-0.0012958,"MEAN_MOTION_DOT":-4.6e-6,"MEAN_MOTION_DDOT":0},{"OBJECT_NAME":"ONEWEB-0173","OBJECT_ID":"2021-025AD","EPOCH":"2026-03-26T09:42:29.886048","MEAN_MOTION":13.13471637,"ECCENTRICITY":0.0002041,"INCLINATION":87.902,"RA_OF_ASC_NODE":336.6984,"ARG_OF_PERICENTER":72.146,"MEAN_ANOMALY":287.9892,"EPHEMERIS_TYPE":0,"CLASSIFICATION_TYPE":"U","NORAD_CAT_ID":48069,"ELEMENT_SET_NO":999,"REV_AT_EPOCH":24293,"BSTAR":-0.00050578,"MEAN_MOTION_DOT":-1.72e-6,"MEAN_MOTION_DDOT":0}]
