ONEWEB-0161             
1 48053U 21025M   26085.44007043  .00000224  00000+0  57847-3 0  9994
2 48053  87.9016 336.6909 0001757  73.5775 286.5547 13.13472604242649
ONEWEB-0158             
1 48054U 21025N   26085.39943470 -.00000015  00000+0 -75891-4 0  9992
2 48054  87.9024 336.6911 0001819  89.3324 270.8014 13.13471823242766
ONEWEB-0157             
1 48055U 21025P   26085.42483125 -.00000123  00000+0 -37304-3 0  9999
2 48055  87.9019 336.6905 0001937  68.5793 291.5543 13.13471848242702
ONEWEB-0162             
1 48056U 21025Q   26085.40100164 -.00000038  00000+0 -13936-3 0  9997
2 48056  87.9021 336.6996 0001591  76.1976 283.9330 13.13469234242671
ONEWEB-0155             
1 48057U 21025R   26085.40790535 -.00000256  00000+0 -73648-3 0  9993
2 48057  87.9017 336.6960 0001894  77.0818 283.0522 13.13471089242810
ONEWEB-0149             
1 48058U 21025S   26085.42990640 -.00000065  00000+0 -21268-3 0  9994
2 48058  87.9024 336.6897 0001559  76.8523 283.2780 13.13472290242628
ONEWEB-0148             
1 48059U 21025T   26085.39266470  .00000147  00000+0  36754-3 0  9993
2 48059  87.9017 336.7106 0001357  61.6367 298.4899 13.13468554242749
ONEWEB-0160             
1 48060U 21025U   26085.40959044 -.00000237  00000+0 -68390-3 0  9996
2 48060  87.9011 336.7037 0001747 105.0919 255.0403 13.13468717242692
ONEWEB-0163             
1 48061U 21025V   26085.39435797  .00000138  00000+0  34271-3 0  9998
2 48061  87.9016 336.6992 0001867  70.8074 289.3257 13.13471538242817
ONEWEB-0159             
1 48062U 21025W   26085.38590171  .00000332  00000+0  87285-3 0  9995
2 48062  87.9024 336.6887 0001723  71.5277 288.6039 13.13471320242734
ONEWEB-0164             
1 48063U 21025X   26085.44345160  .00000273  00000+0  71197-3 0  9998
2 48063  87.9024 336.6838 0001747  82.7600 277.3728 13.13472389242726
ONEWEB-0167             
1 48064U 21025Y   26085.39521023  .00000067  00000+0  14918-3 0  9996
2 48064  87.9013 336.7109 0002407  76.6985 283.4412 13.13472083242706
ONEWEB-0166             
1 48065U 21025Z   26085.41805410 -.00000481  00000+0 -13510-2 0  9993
2 48065  87.9026 336.6703 0001625  74.4342 285.6966 13.13469812242786
ONEWEB-0151             
1 48066U 21025AA  26085.41975781 -.00000203  00000+0 -59177-3 0  9995
2 48066  87.9017 336.6946 0001883  80.6706 279.4636 13.13471850242729
ONEWEB-0170             
1 48067U 21025AB  26085.42821176 -.00000031  00000+0 -12096-3 0  9993
2 48067  87.9015 336.6947 0002011  91.6359 268.5000 13.13472421242683
ONEWEB-0168             
1 48068U 21025AC  26085.41297572 -.00000460  00000+0 -12958-2 0  9992
2 48068  87.9022 336.6903 0001813  73.7278 286.4051 13.13469094242692
ONEWEB-0173             
1 48069U 21025AD  26085.40451257 -.00000172  00000+0 -50578-3 0  9995
2 48069  87.9020 336.6984 0002041  72.1460 287.9892 13.13471637242932
